{"fetched_at":"2026-07-10T07:58:43.188Z","source":"https://celestrak.org/NORAD/elements/gp.php?GROUP=planet&FORMAT=JSON","constellation":"pelican","records":[{"OBJECT_NAME":"PELICAN-1","OBJECT_ID":"2023-174AS","EPOCH":"2026-07-07T05:27:12.727296","CLASSIFICATION_TYPE":"U","MEAN_MOTION":15.72538596,"ECCENTRICITY":0.00047499,"INCLINATION":97.3953,"RA_OF_ASC_NODE":289.8222,"ARG_OF_PERICENTER":148.5978,"MEAN_ANOMALY":211.557,"EPHEMERIS_TYPE":0,"NORAD_CAT_ID":58296,"ELEMENT_SET_NO":999,"REV_AT_EPOCH":14931,"BSTAR":0.000054763225,"MEAN_MOTION_DOT":0.00007175,"MEAN_MOTION_DDOT":0},{"OBJECT_NAME":"PELICAN-2","OBJECT_ID":"2025-009Y","EPOCH":"2026-07-09T04:38:26.267712","CLASSIFICATION_TYPE":"U","MEAN_MOTION":15.40630366,"ECCENTRICITY":0.00022635,"INCLINATION":97.2213,"RA_OF_ASC_NODE":280.8272,"ARG_OF_PERICENTER":130.4618,"MEAN_ANOMALY":229.6826,"EPHEMERIS_TYPE":0,"NORAD_CAT_ID":62631,"ELEMENT_SET_NO":999,"REV_AT_EPOCH":8294,"BSTAR":0.000002200913,"MEAN_MOTION_DOT":9e-8,"MEAN_MOTION_DDOT":0},{"OBJECT_NAME":"PELICAN-3","OBJECT_ID":"2025-188A","EPOCH":"2026-07-09T04:37:09.379488","CLASSIFICATION_TYPE":"U","MEAN_MOTION":15.40976651,"ECCENTRICITY":0.00017006,"INCLINATION":97.1982,"RA_OF_ASC_NODE":266.0143,"ARG_OF_PERICENTER":106.3363,"MEAN_ANOMALY":253.8072,"EPHEMERIS_TYPE":0,"NORAD_CAT_ID":65315,"ELEMENT_SET_NO":999,"REV_AT_EPOCH":4870,"BSTAR":0.00014629945,"MEAN_MOTION_DOT":0.00005944,"MEAN_MOTION_DDOT":0},{"OBJECT_NAME":"PELICAN-4","OBJECT_ID":"2025-188B","EPOCH":"2026-07-09T03:28:42.472992","CLASSIFICATION_TYPE":"U","MEAN_MOTION":15.40943996,"ECCENTRICITY":0.00008356,"INCLINATION":97.1994,"RA_OF_ASC_NODE":266.1222,"ARG_OF_PERICENTER":105.5197,"MEAN_ANOMALY":254.6142,"EPHEMERIS_TYPE":0,"NORAD_CAT_ID":65316,"ELEMENT_SET_NO":999,"REV_AT_EPOCH":4869,"BSTAR":0.00014410868,"MEAN_MOTION_DOT":0.00005847,"MEAN_MOTION_DDOT":0},{"OBJECT_NAME":"PELICAN-5","OBJECT_ID":"2025-276B","EPOCH":"2026-07-08T10:44:47.555232","CLASSIFICATION_TYPE":"U","MEAN_MOTION":15.31764598,"ECCENTRICITY":0.00024223,"INCLINATION":97.4121,"RA_OF_ASC_NODE":264.4094,"ARG_OF_PERICENTER":352.7008,"MEAN_ANOMALY":7.4198,"EPHEMERIS_TYPE":0,"NORAD_CAT_ID":66667,"ELEMENT_SET_NO":999,"REV_AT_EPOCH":3377,"BSTAR":0.00012746571,"MEAN_MOTION_DOT":0.00003831,"MEAN_MOTION_DDOT":0},{"OBJECT_NAME":"PELICAN-6","OBJECT_ID":"2025-276AP","EPOCH":"2026-07-08T18:29:17.236896","CLASSIFICATION_TYPE":"U","MEAN_MOTION":15.31077896,"ECCENTRICITY":0.00032361,"INCLINATION":97.3784,"RA_OF_ASC_NODE":264.7842,"ARG_OF_PERICENTER":48.6984,"MEAN_ANOMALY":311.4536,"EPHEMERIS_TYPE":0,"NORAD_CAT_ID":66703,"ELEMENT_SET_NO":999,"REV_AT_EPOCH":3383,"BSTAR":0.00010638544,"MEAN_MOTION_DOT":0.00003117,"MEAN_MOTION_DDOT":0},{"OBJECT_NAME":"PELICAN-7","OBJECT_ID":"2026-100AP","EPOCH":"2026-07-08T16:36:52.687872","CLASSIFICATION_TYPE":"U","MEAN_MOTION":15.23481001,"ECCENTRICITY":0.00033143,"INCLINATION":97.3907,"RA_OF_ASC_NODE":87.2405,"ARG_OF_PERICENTER":94.4001,"MEAN_ANOMALY":265.7614,"EPHEMERIS_TYPE":0,"NORAD_CAT_ID":69017,"ELEMENT_SET_NO":999,"REV_AT_EPOCH":1008,"BSTAR":0.000063924856,"MEAN_MOTION_DOT":0.00001454,"MEAN_MOTION_DDOT":0},{"OBJECT_NAME":"PELICAN-9","OBJECT_ID":"2026-100AR","EPOCH":"2026-07-09T04:32:25.101888","CLASSIFICATION_TYPE":"U","MEAN_MOTION":15.21775995,"ECCENTRICITY":0.0002786,"INCLINATION":97.3768,"RA_OF_ASC_NODE":87.5799,"ARG_OF_PERICENTER":21.4884,"MEAN_ANOMALY":338.6469,"EPHEMERIS_TYPE":0,"NORAD_CAT_ID":69019,"ELEMENT_SET_NO":999,"REV_AT_EPOCH":1015,"BSTAR":0.000067771315,"MEAN_MOTION_DOT":0.00001468,"MEAN_MOTION_DDOT":0}]}
