PELICAN-1               
1 58296U 23174AS  26188.22723064  .00007175  00000+0  54763-4 0  9996
2 58296  97.3953 289.8222 0004749 148.5978 211.5570 15.72538596149317
PELICAN-2               
1 62631U 25009Y   26190.19335958  .00000009  00000+0  22009-5 0  9991
2 62631  97.2213 280.8272 0002263 130.4618 229.6826 15.40630366 82941
PELICAN-3               
1 65315U 25188A   26190.19246967  .00005944  00000+0  14630-3 0  9994
2 65315  97.1982 266.0143 0001700 106.3363 253.8072 15.40976651 48700
PELICAN-4               
1 65316U 25188B   26190.14493603  .00005847  00000+0  14411-3 0  9990
2 65316  97.1994 266.1222 0000835 105.5197 254.6142 15.40943996 48698
PELICAN-5               
1 66667U 25276B   26189.44777263  .00003831  00000+0  12747-3 0  9997
2 66667  97.4121 264.4094 0002422 352.7008   7.4198 15.31764598 33779
PELICAN-6               
1 66703U 25276AP  26189.77033839  .00003117  00000+0  10639-3 0  9993
2 66703  97.3784 264.7842 0003236  48.6984 311.4536 15.31077896 33835
PELICAN-7               
1 69017U 26100AP  26189.69227648  .00001454  00000+0  63925-4 0  9994
2 69017  97.3907  87.2405 0003314  94.4001 265.7614 15.23481001 10080
PELICAN-9               
1 69019U 26100AR  26190.18917942  .00001468  00000+0  67771-4 0  9993
2 69019  97.3768  87.5799 0002786  21.4884 338.6469 15.21775995 10159
